OBJECT_NAME,OBJECT_ID,EPOCH,MEAN_MOTION,ECCENTRICITY,INCLINATION,RA_OF_ASC_NODE,ARG_OF_PERICENTER,MEAN_ANOMALY,EPHEMERIS_TYPE,CLASSIFICATION_TYPE,NORAD_CAT_ID,ELEMENT_SET_NO,REV_AT_EPOCH,BSTAR,MEAN_MOTION_DOT,MEAN_MOTION_DDOT
OCEANSAT-2,2009-051A,2026-06-16T20:12:38.912256,13.99664486,.0015176,98.2324,154.7279,236.9976,122.9733,0,U,35931,999,87928,-.63047E-4,-.13E-5,0
WORLDVIEW-2 (WV-2),2009-055A,2026-06-16T19:34:50.990880,14.37899339,.0003684,98.4737,241.2705,209.2174,150.8808,0,U,35946,999,87559,.44928E-4,.92E-6,0
SMOS,2009-059A,2026-06-16T18:32:28.759776,14.39772361,.000132,98.4424,355.1135,88.9893,271.1446,0,U,36036,999,87339,.72791E-4,.185E-5,0
YAOGAN-7,2009-069A,2026-06-16T16:22:55.901280,14.78009423,.0025592,98.0072,53.5527,43.2823,317.0392,0,U,36110,999,88955,.62963E-4,.404E-5,0
TANDEM-X,2010-030A,2026-06-15T13:04:49.708992,15.19149123,.0001884,97.4452,174.2763,86.9240,273.2210,0,U,36605,999,88639,.21672042E-4,.388E-5,0
CARTOSAT-2B,2010-035A,2026-06-16T20:47:02.215968,14.78660536,.0011132,97.9953,218.4178,184.7879,175.3228,0,U,36795,999,85980,.44952E-4,.277E-5,0
YAOGAN-10,2010-038A,2026-06-16T21:22:45.279840,14.85345978,.0001643,97.8970,191.2968,86.8932,34.0490,0,U,36834,999,85716,.96696E-4,.778E-5,0
COSMO-SKYMED 4,2010-060A,2026-06-16T20:04:04.174752,14.82153220,.0001425,97.8879,351.4408,80.6991,279.4383,0,U,37216,999,84451,.28478E-4,.174E-5,0
RESOURCESAT-2,2011-015A,2026-06-16T19:22:46.108704,14.21606401,.0010194,98.7644,235.2519,256.7139,103.2901,0,U,37387,999,78612,.54701E-4,.76E-6,0
RASAT,2011-044D,2026-06-16T20:25:48.674784,14.68166131,.0020131,98.0582,259.2531,189.8188,308.6162,0,U,37791,999,79313,.89189E-4,.465E-5,0
SRMSAT,2011-058D,2026-06-16T09:23:02.445792,14.11575402,.00118046,19.9721,64.2860,194.8507,321.4366,0,U,37841,999,75770,.48036889E-4,.354E-5,0
PLEIADES 1A,2011-076F,2026-06-16T20:42:57.152736,14.58570353,.0001645,98.1981,242.9703,94.9022,29.4334,0,U,38012,999,77194,.3797E-4,.131E-5,0
ZIYUAN 1-02C (ZY 1-02C),2011-079A,2026-06-16T21:04:50.962368,14.38214263,.0005535,98.4076,235.1931,318.2433,163.1806,0,U,38038,999,75916,.10646E-3,.28E-5,0
ARIRANG-3 (KOMPSAT-3),2012-025B,2026-06-16T19:51:28.974816,14.62205853,.0006661,98.1170,125.2935,110.2394,249.9524,0,U,38338,999,75129,.75868E-4,.336E-5,0
EXACTVIEW-1 (ADS-1B),2012-039C,2026-06-16T07:52:19.499808,14.24984344,.00111163,98.9776,284.6988,168.8046,191.3382,0,U,38709,999,72258,.60123452E-4,.94E-6,0
SPOT 6,2012-047A,2026-06-16T20:30:56.690784,14.58562602,.000149,98.2123,235.1674,91.0230,269.1140,0,U,38755,999,73300,.49844E-4,.186E-5,0
PLEIADES 1B,2012-068A,2026-06-16T19:19:24.007008,14.58560553,.0001644,98.1951,242.8618,90.2146,269.9242,0,U,39019,999,72079,.73471E-4,.296E-5,0
GOKTURK 2,2012-073A,2026-06-16T19:25:44.368320,14.75543169,.0001618,97.6812,5.2601,55.9935,304.1429,0,U,39030,999,72445,.71635E-4,.441E-5,0
LANDSAT 8,2013-008A,2026-06-16T19:38:57.687936,14.57094316,.0001358,98.2302,237.9584,93.5681,266.5673,0,U,39084,999,69784,.70028E-4,.27E-5,0
SARAL,2013-009A,2026-06-16T19:57:14.721696,14.32855867,.0000725,98.5556,354.4031,312.3188,47.7934,0,U,39086,999,69555,.40647E-4,.67E-6,0
GAOFEN-1,2013-018A,2026-06-16T20:37:58.531008,14.76535969,.0015681,97.9100,239.9341,267.7520,92.1894,0,U,39150,999,70819,.44673E-4,.261E-5,0
VNREDSAT 1,2013-021B,2026-06-16T21:13:05.781216,14.64856489,.0001713,97.9080,221.3121,89.1584,270.9816,0,U,39160,999,70024,.87996E-4,.425E-5,0
SKYSAT-A,2013-066C,2026-06-16T15:53:25.410624,15.12973980,.0020129,97.3813,217.0761,319.4832,40.4900,0,U,39418,999,68840,.13235E-3,.2281E-4,0
DUBAISAT-2,2013-066D,2026-06-16T20:55:42.471840,15.10178037,.0012363,97.4557,158.0243,41.6858,318.5312,0,U,39419,999,68634,.16324E-3,.2607E-4,0
GPM-CORE,2014-009C,2026-06-16T19:42:09.341280,15.44564838,.0011872,64.9727,309.3530,251.4822,108.5029,0,U,39574,999,69775,.21262E-3,.9714E-4,0
SENTINEL-1A,2014-016A,2026-06-16T21:17:59.604288,14.59199599,.0001419,98.1771,175.4243,84.1014,276.0348,0,U,39634,999,64997,.29723E-4,.94E-6,0
KAZEOSAT 1,2014-024A,2026-06-16T19:31:29.875008,14.42079705,.0001358,98.3210,240.2700,72.6295,287.5043,0,U,39731,999,63850,.42911E-4,.98E-6,0
ALOS-2,2014-029A,2026-06-16T20:50:50.413920,14.79468481,.0001617,97.9226,265.0362,90.7557,269.3840,0,U,39766,999,65153,.10884E-3,.761E-5,0
KAZEOSAT 2,2014-033A,2026-06-16T19:49:15.667392,14.85467664,.0007925,97.5400,7.4569,330.6856,29.3914,0,U,40010,999,64890,.89473E-5,.27E-6,0
