OCEANSAT-2              
1 35931U 09051A   26167.84211704 -.00000130  00000+0 -63047-4 0  9994
2 35931  98.2324 154.7279 0015176 236.9976 122.9733 13.99664486879285
WORLDVIEW-2 (WV-2)      
1 35946U 09055A   26167.81586795  .00000092  00000+0  44928-4 0  9998
2 35946  98.4737 241.2705 0003684 209.2174 150.8808 14.37899339875594
SMOS                    
1 36036U 09059A   26167.77255509  .00000185  00000+0  72791-4 0  9996
2 36036  98.4424 355.1135 0001320  88.9893 271.1446 14.39772361873393
YAOGAN-7                
1 36110U 09069A   26167.68259145  .00000404  00000+0  62963-4 0  9994
2 36110  98.0072  53.5527 0025592  43.2823 317.0392 14.78009423889559
TANDEM-X                
1 36605U 10030A   26166.54501978  .00000388  00000+0  21672-4 0  9994
2 36605  97.4452 174.2763 0001884  86.9240 273.2210 15.19149123886390
CARTOSAT-2B             
1 36795U 10035A   26167.86599787  .00000277  00000+0  44952-4 0  9993
2 36795  97.9953 218.4178 0011132 184.7879 175.3228 14.78660536859801
YAOGAN-10               
1 36834U 10038A   26167.89080185  .00000778  00000+0  96696-4 0  9998
2 36834  97.8970 191.2968 0001643  86.8932  34.0490 14.85345978857163
COSMO-SKYMED 4          
1 37216U 10060A   26167.83615943  .00000174  00000+0  28478-4 0  9991
2 37216  97.8879 351.4408 0001425  80.6991 279.4383 14.82153220844515
RESOURCESAT-2           
1 37387U 11015A   26167.80747811  .00000076  00000+0  54701-4 0  9997
2 37387  98.7644 235.2519 0010194 256.7139 103.2901 14.21606401786128
RASAT                   
1 37791U 11044D   26167.85125781  .00000465  00000+0  89189-4 0  9999
2 37791  98.0582 259.2531 0020131 189.8188 308.6162 14.68166131793134
SRMSAT                  
1 37841U 11058D   26167.39100053  .00000354  00000+0  48037-4 0  9998
2 37841  19.9721  64.2860 0011804 194.8507 321.4366 14.11575402757709
PLEIADES 1A             
1 38012U 11076F   26167.86316149  .00000131  00000+0  37970-4 0  9993
2 38012  98.1981 242.9703 0001645  94.9022  29.4334 14.58570353771945
ZIYUAN 1-02C (ZY 1-02C) 
1 38038U 11079A   26167.87836762  .00000280  00000+0  10646-3 0  9998
2 38038  98.4076 235.1931 0005535 318.2433 163.1806 14.38214263759161
ARIRANG-3 (KOMPSAT-3)   
1 38338U 12025B   26167.82741869  .00000336  00000+0  75868-4 0  9991
2 38338  98.1170 125.2935 0006661 110.2394 249.9524 14.62205853751294
EXACTVIEW-1 (ADS-1B)    
1 38709U 12039C   26167.32800347  .00000094  00000+0  60123-4 0  9999
2 38709  98.9776 284.6988 0011116 168.8046 191.3382 14.24984344722587
SPOT 6                  
1 38755U 12047A   26167.85482281  .00000186  00000+0  49844-4 0  9999
2 38755  98.2123 235.1674 0001490  91.0230 269.1140 14.58562602733007
PLEIADES 1B             
1 39019U 12068A   26167.80513897  .00000296  00000+0  73471-4 0  9994
2 39019  98.1951 242.8618 0001644  90.2146 269.9242 14.58560553720796
GOKTURK 2               
1 39030U 12073A   26167.80954130  .00000441  00000+0  71635-4 0  9994
2 39030  97.6812   5.2601 0001618  55.9935 304.1429 14.75543169724456
LANDSAT 8               
1 39084U 13008A   26167.81872324  .00000270  00000+0  70028-4 0  9992
2 39084  98.2302 237.9584 0001358  93.5681 266.5673 14.57094316697846
SARAL                   
1 39086U 13009A   26167.83142039  .00000067  00000+0  40647-4 0  9998
2 39086  98.5556 354.4031 0000725 312.3188  47.7934 14.32855867695559
GAOFEN-1                
1 39150U 13018A   26167.85970522  .00000261  00000+0  44673-4 0  9997
2 39150  97.9100 239.9341 0015681 267.7520  92.1894 14.76535969708190
VNREDSAT 1              
1 39160U 13021B   26167.88409469  .00000425  00000+0  87996-4 0  9999
2 39160  97.9080 221.3121 0001713  89.1584 270.9816 14.64856489700244
SKYSAT-A                
1 39418U 13066C   26167.66209966  .00002281  00000+0  13235-3 0  9996
2 39418  97.3813 217.0761 0020129 319.4832  40.4900 15.12973980688404
DUBAISAT-2              
1 39419U 13066D   26167.87201935  .00002607  00000+0  16324-3 0  9992
2 39419  97.4557 158.0243 0012363  41.6858 318.5312 15.10178037686348
GPM-CORE                
1 39574U 14009C   26167.82094145  .00009714  00000+0  21262-3 0  9993
2 39574  64.9727 309.3530 0011872 251.4822 108.5029 15.44564838697758
SENTINEL-1A             
1 39634U 14016A   26167.88749542  .00000094  00000+0  29723-4 0  9995
2 39634  98.1771 175.4243 0001419  84.1014 276.0348 14.59199599649975
KAZEOSAT 1              
1 39731U 14024A   26167.81354022  .00000098  00000+0  42911-4 0  9998
2 39731  98.3210 240.2700 0001358  72.6295 287.5043 14.42079705638501
ALOS-2                  
1 39766U 14029A   26167.86863905  .00000761  00000+0  10884-3 0  9991
2 39766  97.9226 265.0362 0001617  90.7557 269.3840 14.79468481651534
KAZEOSAT 2              
1 40010U 14033A   26167.82587578  .00000027  00000+0  89473-5 0  9992
2 40010  97.5400   7.4569 0007925 330.6856  29.3914 14.85467664648903
